KZ-11 R/B               
1 68205U 26052H   26082.51667000  .00033593  19004-5  49972-3 0  9995
2 68205  97.3415 158.3698 0547815 349.2416   9.7441 14.66916306  1087
2026-052J               
1 68206U 26052J   26082.44747596  .00061811  23163-5  90523-3 0  9990
2 68206  97.3418 158.3094 0546399 349.5386   9.4807 14.67377533  1072
TEN-KOH 2               
1 68261U 25241B   26082.14044287  .00011434  00000+0  49807-3 0  9998
2 68261  51.6363   8.9067 0004452 202.8733 157.2047 15.22634238  1798
PROGRESS-MS 33          
1 68319U 26058A   26082.05109224  .00200487  28256-4  35870-3 0  9993
2 68319  51.6358   6.8873 0011621 152.2903 207.8729 16.01170532    69
SL-4 R/B                
1 68320U 26058B   26082.28978258  .04360507  12203-4  75382-3 0  9992
2 68320  51.6525   5.5511 0018755  76.9675 283.3441 16.31521474   131
CENTISPACE-1 OBJECT A   
1 68350U 26060A   26082.51792587  .00000014  00000+0  33007-4 0  9999
2 68350  54.9827  25.2108 0012813 293.8297  66.1359 14.74900611   139
CENTISPACE-1 OBJECT B   
1 68351U 26060B   26082.51791314  .00000014  00000+0  33057-4 0  9992
2 68351  54.9826  25.2117 0012943 294.0970  65.8675 14.74922519   132
CENTISPACE-1 OBJECT C   
1 68352U 26060C   26082.51781707  .00000018  00000+0  33469-4 0  9999
2 68352  54.9825  25.2115 0012131 299.8681  60.1113 14.75098948   137
CENTISPACE-1 OBJECT D   
1 68353U 26060D   26082.51778994  .00000019  00000+0  33581-4 0  9990
2 68353  54.9846  25.2093 0012363 300.8343  59.1439 14.75145564   137
CENTISPACE-1 OBJECT E   
1 68354U 26060E   26082.51775242  .00000020  00000+0  33698-4 0  9995
2 68354  54.9777  25.2109 0012927 300.5092  59.4631 14.75207282   136
CENTISPACE-1 OBJECT F   
1 68355U 26060F   26082.51773939  .00000020  00000+0  33729-4 0  9992
2 68355  54.9769  25.2115 0013360 299.6961  60.2708 14.75226818   131
CENTISPACE-1 OBJECT G   
1 68356U 26060G   26082.51769250  .00000021  00000+0  33887-4 0  9990
2 68356  54.9875  25.2080 0013375 300.5721  59.3959 14.75308594   132
