CCSDS_OMM_VERS = 2.0
CREATION_DATE  = 
ORIGINATOR     = 

OBJECT_NAME    = KZ-11 R/B
OBJECT_ID      = 2026-052H
CENTER_NAME    = EARTH
REF_FRAME      = TEME
TIME_SYSTEM    = UTC
MEAN_ELEMENT_THEORY = SGP/SGP4

EPOCH          = 2026-03-23T12:24:00.288000
MEAN_MOTION    = 14.66916306
ECCENTRICITY   = .0547815
INCLINATION    = 97.3415
RA_OF_ASC_NODE = 158.3698
ARG_OF_PERICENTER = 349.2416
MEAN_ANOMALY   = 9.7441

EPHEMERIS_TYPE = 0
CLASSIFICATION_TYPE = U
NORAD_CAT_ID   = 68205
ELEMENT_SET_NO = 999
REV_AT_EPOCH   = 108
BSTAR          = .49972E-3
MEAN_MOTION_DOT = .33593E-3
MEAN_MOTION_DDOT = .19004E-5

CCSDS_OMM_VERS = 2.0
CREATION_DATE  = 
ORIGINATOR     = 

OBJECT_NAME    = 2026-052J
OBJECT_ID      = 2026-052J
CENTER_NAME    = EARTH
REF_FRAME      = TEME
TIME_SYSTEM    = UTC
MEAN_ELEMENT_THEORY = SGP/SGP4

EPOCH          = 2026-03-23T10:44:21.922944
MEAN_MOTION    = 14.67377533
ECCENTRICITY   = .0546399
INCLINATION    = 97.3418
RA_OF_ASC_NODE = 158.3094
ARG_OF_PERICENTER = 349.5386
MEAN_ANOMALY   = 9.4807

EPHEMERIS_TYPE = 0
CLASSIFICATION_TYPE = U
NORAD_CAT_ID   = 68206
ELEMENT_SET_NO = 999
REV_AT_EPOCH   = 107
BSTAR          = .90523E-3
MEAN_MOTION_DOT = .61811E-3
MEAN_MOTION_DDOT = .23163E-5

CCSDS_OMM_VERS = 2.0
CREATION_DATE  = 
ORIGINATOR     = 

OBJECT_NAME    = TEN-KOH 2
OBJECT_ID      = 2025-241B
CENTER_NAME    = EARTH
REF_FRAME      = TEME
TIME_SYSTEM    = UTC
MEAN_ELEMENT_THEORY = SGP/SGP4

EPOCH          = 2026-03-23T03:22:14.263968
MEAN_MOTION    = 15.22634238
ECCENTRICITY   = .00044521
INCLINATION    = 51.6363
RA_OF_ASC_NODE = 8.9067
ARG_OF_PERICENTER = 202.8733
MEAN_ANOMALY   = 157.2047

EPHEMERIS_TYPE = 0
CLASSIFICATION_TYPE = U
NORAD_CAT_ID   = 68261
ELEMENT_SET_NO = 999
REV_AT_EPOCH   = 179
BSTAR          = .49807395E-3
MEAN_MOTION_DOT = .11434E-3
MEAN_MOTION_DDOT = 0

CCSDS_OMM_VERS = 2.0
CREATION_DATE  = 
ORIGINATOR     = 

OBJECT_NAME    = PROGRESS-MS 33
OBJECT_ID      = 2026-058A
CENTER_NAME    = EARTH
REF_FRAME      = TEME
TIME_SYSTEM    = UTC
MEAN_ELEMENT_THEORY = SGP/SGP4

EPOCH          = 2026-03-23T01:13:34.369536
MEAN_MOTION    = 16.01170532
ECCENTRICITY   = .00116217
INCLINATION    = 51.6358
RA_OF_ASC_NODE = 6.8873
ARG_OF_PERICENTER = 152.2903
MEAN_ANOMALY   = 207.8729

EPHEMERIS_TYPE = 0
CLASSIFICATION_TYPE = U
NORAD_CAT_ID   = 68319
ELEMENT_SET_NO = 999
REV_AT_EPOCH   = 6
BSTAR          = .35870065E-3
MEAN_MOTION_DOT = .200487E-2
MEAN_MOTION_DDOT = .28255529E-4

CCSDS_OMM_VERS = 2.0
CREATION_DATE  = 
ORIGINATOR     = 

OBJECT_NAME    = SL-4 R/B
OBJECT_ID      = 2026-058B
CENTER_NAME    = EARTH
REF_FRAME      = TEME
TIME_SYSTEM    = UTC
MEAN_ELEMENT_THEORY = SGP/SGP4

EPOCH          = 2026-03-23T06:57:17.214912
MEAN_MOTION    = 16.31521474
ECCENTRICITY   = .0018755
INCLINATION    = 51.6525
RA_OF_ASC_NODE = 5.5511
ARG_OF_PERICENTER = 76.9675
MEAN_ANOMALY   = 283.3441

EPHEMERIS_TYPE = 0
CLASSIFICATION_TYPE = U
NORAD_CAT_ID   = 68320
ELEMENT_SET_NO = 999
REV_AT_EPOCH   = 13
BSTAR          = .75382E-3
MEAN_MOTION_DOT = .4360507E-1
MEAN_MOTION_DDOT = .12203E-4

CCSDS_OMM_VERS = 2.0
CREATION_DATE  = 
ORIGINATOR     = 

OBJECT_NAME    = CENTISPACE-1 OBJECT A
OBJECT_ID      = 2026-060A
CENTER_NAME    = EARTH
REF_FRAME      = TEME
TIME_SYSTEM    = UTC
MEAN_ELEMENT_THEORY = SGP/SGP4

EPOCH          = 2026-03-23T12:25:48.795168
MEAN_MOTION    = 14.74900611
ECCENTRICITY   = .0012813
INCLINATION    = 54.9827
RA_OF_ASC_NODE = 25.2108
ARG_OF_PERICENTER = 293.8297
MEAN_ANOMALY   = 66.1359

EPHEMERIS_TYPE = 0
CLASSIFICATION_TYPE = U
NORAD_CAT_ID   = 68350
ELEMENT_SET_NO = 999
REV_AT_EPOCH   = 13
BSTAR          = .33007E-4
MEAN_MOTION_DOT = .14E-6
MEAN_MOTION_DDOT = 0

CCSDS_OMM_VERS = 2.0
CREATION_DATE  = 
ORIGINATOR     = 

OBJECT_NAME    = CENTISPACE-1 OBJECT B
OBJECT_ID      = 2026-060B
CENTER_NAME    = EARTH
REF_FRAME      = TEME
TIME_SYSTEM    = UTC
MEAN_ELEMENT_THEORY = SGP/SGP4

EPOCH          = 2026-03-23T12:25:47.695296
MEAN_MOTION    = 14.74922519
ECCENTRICITY   = .0012943
INCLINATION    = 54.9826
RA_OF_ASC_NODE = 25.2117
ARG_OF_PERICENTER = 294.0970
MEAN_ANOMALY   = 65.8675

EPHEMERIS_TYPE = 0
CLASSIFICATION_TYPE = U
NORAD_CAT_ID   = 68351
ELEMENT_SET_NO = 999
REV_AT_EPOCH   = 13
BSTAR          = .33057E-4
MEAN_MOTION_DOT = .14E-6
MEAN_MOTION_DDOT = 0

CCSDS_OMM_VERS = 2.0
CREATION_DATE  = 
ORIGINATOR     = 

OBJECT_NAME    = CENTISPACE-1 OBJECT C
OBJECT_ID      = 2026-060C
CENTER_NAME    = EARTH
REF_FRAME      = TEME
TIME_SYSTEM    = UTC
MEAN_ELEMENT_THEORY = SGP/SGP4

EPOCH          = 2026-03-23T12:25:39.394848
MEAN_MOTION    = 14.75098948
ECCENTRICITY   = .0012131
INCLINATION    = 54.9825
RA_OF_ASC_NODE = 25.2115
ARG_OF_PERICENTER = 299.8681
MEAN_ANOMALY   = 60.1113

EPHEMERIS_TYPE = 0
CLASSIFICATION_TYPE = U
NORAD_CAT_ID   = 68352
ELEMENT_SET_NO = 999
REV_AT_EPOCH   = 13
BSTAR          = .33469E-4
MEAN_MOTION_DOT = .18E-6
MEAN_MOTION_DDOT = 0

CCSDS_OMM_VERS = 2.0
CREATION_DATE  = 
ORIGINATOR     = 

OBJECT_NAME    = CENTISPACE-1 OBJECT D
OBJECT_ID      = 2026-060D
CENTER_NAME    = EARTH
REF_FRAME      = TEME
TIME_SYSTEM    = UTC
MEAN_ELEMENT_THEORY = SGP/SGP4

EPOCH          = 2026-03-23T12:25:37.050816
MEAN_MOTION    = 14.75145564
ECCENTRICITY   = .0012363
INCLINATION    = 54.9846
RA_OF_ASC_NODE = 25.2093
ARG_OF_PERICENTER = 300.8343
MEAN_ANOMALY   = 59.1439

EPHEMERIS_TYPE = 0
CLASSIFICATION_TYPE = U
NORAD_CAT_ID   = 68353
ELEMENT_SET_NO = 999
REV_AT_EPOCH   = 13
BSTAR          = .33581E-4
MEAN_MOTION_DOT = .19E-6
MEAN_MOTION_DDOT = 0

CCSDS_OMM_VERS = 2.0
CREATION_DATE  = 
ORIGINATOR     = 

OBJECT_NAME    = CENTISPACE-1 OBJECT E
OBJECT_ID      = 2026-060E
CENTER_NAME    = EARTH
REF_FRAME      = TEME
TIME_SYSTEM    = UTC
MEAN_ELEMENT_THEORY = SGP/SGP4

EPOCH          = 2026-03-23T12:25:33.809088
MEAN_MOTION    = 14.75207282
ECCENTRICITY   = .0012927
INCLINATION    = 54.9777
RA_OF_ASC_NODE = 25.2109
ARG_OF_PERICENTER = 300.5092
MEAN_ANOMALY   = 59.4631

EPHEMERIS_TYPE = 0
CLASSIFICATION_TYPE = U
NORAD_CAT_ID   = 68354
ELEMENT_SET_NO = 999
REV_AT_EPOCH   = 13
BSTAR          = .33698E-4
MEAN_MOTION_DOT = .2E-6
MEAN_MOTION_DDOT = 0

CCSDS_OMM_VERS = 2.0
CREATION_DATE  = 
ORIGINATOR     = 

OBJECT_NAME    = CENTISPACE-1 OBJECT F
OBJECT_ID      = 2026-060F
CENTER_NAME    = EARTH
REF_FRAME      = TEME
TIME_SYSTEM    = UTC
MEAN_ELEMENT_THEORY = SGP/SGP4

EPOCH          = 2026-03-23T12:25:32.683296
MEAN_MOTION    = 14.75226818
ECCENTRICITY   = .001336
INCLINATION    = 54.9769
RA_OF_ASC_NODE = 25.2115
ARG_OF_PERICENTER = 299.6961
MEAN_ANOMALY   = 60.2708

EPHEMERIS_TYPE = 0
CLASSIFICATION_TYPE = U
NORAD_CAT_ID   = 68355
ELEMENT_SET_NO = 999
REV_AT_EPOCH   = 13
BSTAR          = .33729E-4
MEAN_MOTION_DOT = .2E-6
MEAN_MOTION_DDOT = 0

CCSDS_OMM_VERS = 2.0
CREATION_DATE  = 
ORIGINATOR     = 

OBJECT_NAME    = CENTISPACE-1 OBJECT G
OBJECT_ID      = 2026-060G
CENTER_NAME    = EARTH
REF_FRAME      = TEME
TIME_SYSTEM    = UTC
MEAN_ELEMENT_THEORY = SGP/SGP4

EPOCH          = 2026-03-23T12:25:28.632000
MEAN_MOTION    = 14.75308594
ECCENTRICITY   = .0013375
INCLINATION    = 54.9875
RA_OF_ASC_NODE = 25.2080
ARG_OF_PERICENTER = 300.5721
MEAN_ANOMALY   = 59.3959

EPHEMERIS_TYPE = 0
CLASSIFICATION_TYPE = U
NORAD_CAT_ID   = 68356
ELEMENT_SET_NO = 999
REV_AT_EPOCH   = 13
BSTAR          = .33887E-4
MEAN_MOTION_DOT = .21E-6
MEAN_MOTION_DDOT = 0

